CUTE-1 (CO-55)          
1 27844U 03031E   24077.55480694  .00000455  00000+0  22102-3 0  9996
2 27844  98.6805  85.8593 0010695  55.2442 304.9742 14.23118176 74750
CUBESAT XI-IV (CO-57)   
1 27848U 03031J   24077.52391449  .00000383  00000+0  19099-3 0  9997
2 27848  98.6837  86.1233 0010767  69.5376 290.6957 14.22580504 74507
CUBESAT XI-V            
1 28895U 05043F   24077.59613099  .00002033  00000+0  37068-3 0  9990
2 28895  98.1852 213.4137 0014857 287.2858  72.6720 14.67060609981026
CUTE-1.7+APD II (CO-65) 
1 32785U 08021C   24077.45356055  .00005408  00000+0  49516-3 0  9993
2 32785  97.7456  43.6989 0009158 272.3992  87.6180 14.95334582861763
AAUSAT-II               
1 32788U 08021F   24077.50607488  .00016625  00000+0  95375-3 0  9998
2 32788  97.5898  57.8473 0008463 119.7992 240.4081 15.12602095864445
SEEDS II (CO-66)        
1 32791U 08021J   24077.44302906  .00007350  00000+0  57235-3 0  9990
2 32791  97.6866  49.3330 0003740 217.7872 142.3090 15.01516915862746
SWISSCUBE               
1 35932U 09051B   24077.60112453  .00001196  00000+0  26713-3 0  9997
2 35932  98.4847 319.0496 0006191 237.3849 122.6752 14.58655952769208
BEESAT-1                
1 35933U 09051C   24077.24773350  .00001086  00000+0  24458-3 0  9999
2 35933  98.4775 319.7138 0004408 252.8288 107.2428 14.58443489769228
ITUPSAT1                
1 35935U 09051E   24077.19746932  .00001000  00000+0  23109-3 0  9999
2 35935  98.4874 319.4938 0006679 261.0792  98.9650 14.57429727768869
TISAT 1                 
1 36799U 10035E   24077.58017876  .00005389  00000+0  43292-3 0  9992
2 36799  98.1043 323.1548 0008423 157.8109 202.3480 15.00459876743317
M-CUBED & EXP-1 PRIME   
1 37855U 11061F   24077.55143352  .00072142  00000+0  10581-2 0  9997
2 37855 101.6848 204.9517 0074407 266.0948  93.1779 15.52050088678701
AEROCUBE 4.5A           
1 38767U 12048K   24077.61981226  .00008994  00000+0  54078-3 0  9997
2 38767  64.6611 247.8269 0104152  51.7362 309.3071 15.06913797246656
AEROCUBE 4.5B           
1 38768U 12048L   24077.57219620  .00015628  00000+0  68487-3 0  9996
2 38768  64.6581 179.5008 0087987  39.4117 321.3364 15.18698361247483
STRAND-1                
1 39090U 13009E   24077.44203053  .00000455  00000+0  17142-3 0  9996
2 39090  98.3830 268.2504 0009236 159.8898 200.2653 14.35931451579071
BRITE-AUSTRIA           
1 39091U 13009F   24077.47198976  .00000307  00000+0  12085-3 0  9994
2 39091  98.3868 267.5428 0010577 167.4351 192.7101 14.35710505579101
NEE-01 PEGASO           
1 39151U 13018B   24077.25813297  .00002985  00000+0  35734-3 0  9997
2 39151  98.0234 193.6020 0014797 343.3081  16.7644 14.84830699588324
ESTCUBE 1               
1 39161U 13021C   24077.42103733  .00001900  00000+0  28469-3 0  9991
2 39161  97.8372 146.6908 0009642 159.7372 200.4222 14.75743336583558
POPACS 1                
1 39268U 13055D   24077.53976286  .00024993  00000+0  46903-3 0  9999
2 39268  80.9816 255.8026 0435980  25.8620 336.3685 14.85081699546901
POPACS 2                
1 39269U 13055E   24077.13594444  .00010517  00000+0  25255-3 0  9992
2 39269  81.0070 339.0596 0564796 243.0224 111.2239 14.53118445542215
POPACS 3                
1 39270U 13055F   24077.55825424  .00017167  00000+0  47766-3 0  9994
2 39270  81.0115  26.3593 0638640  15.9131 346.1120 14.34437628519817
ZACUBE-1 (TSHEPISOSAT)  
1 39417U 13066B   24077.43383420  .00004648  00000+0  50069-3 0  9991
2 39417  97.7246  35.6087 0053924 103.3249 257.3988 14.87846733557937
WNISAT-1                
1 39423U 13066H   24077.56177413  .00000900  00000+0  18235-3 0  9991
2 39423  97.6771 279.2991 0169689 297.1434  61.2549 14.54900033547112
TRITON-1                
1 39427U 13066M   24077.58810633  .00004205  00000+0  60545-3 0  9998
2 39427  97.8422 358.5885 0105038  17.8730 342.6128 14.73122288552729
DELFI-N3XT              
1 39428U 13066N   24077.35762446  .00006672  00000+0  88446-3 0  9992
2 39428  97.8387 358.2345 0105069  26.8916 333.7686 14.76355420552536
GOMX-1                  
1 39430U 13066Q   24077.59108933  .00001806  00000+0  31005-3 0  9999
2 39430  97.7463 317.4972 0141442 183.2958 176.7328 14.63464626549466
CUBEBUG-2 (LO-74)       
1 39440U 13066AA  24077.40032107  .00003371  00000+0  41222-3 0  9990
2 39440  97.8048  23.1833 0070387 212.7704 146.9134 14.82153963554730
NEE-02 KRYSAOR          
1 39441U 13066AB  24076.79910378  .00002518  00000+0  33015-3 0  9990
2 39441  97.8145  18.7932 0073961 235.5695 123.8512 14.79319771554272
FUNCUBE-1 (AO-73)       
1 39444U 13066AE  24077.42366112  .00005918  00000+0  59925-3 0  9990
2 39444  97.7098  38.5138 0051733  86.0551 274.6579 14.90309931556430
UWE-3                   
1 39446U 13066AG  24077.37292347  .00002925  00000+0  33918-3 0  9993
2 39446  97.7719  29.2173 0062521 159.4359 200.9393 14.84799912555076
BRITE-CA1 (TORONTO)     
1 40020U 14033L   24077.35190699  .00001138  00000+0  19214-3 0  9991
2 40020  97.8610 217.8156 0084229  26.1518 334.3905 14.68998515521389
DUCHIFAT-1              
1 40021U 14033M   24077.45442542  .00009527  00000+0  69007-3 0  9995
2 40021  98.0861  56.8374 0015729  56.7931 303.4799 15.04108552530328
NANOSATC-BR1            
1 40024U 14033Q   24077.41624150  .00006965  00000+0  55141-3 0  9998
2 40024  98.0573  45.9457 0011244 115.3898 244.8490 15.00884126529478
QB50P1                  
1 40025U 14033R   24077.35678138  .00006549  00000+0  56122-3 0  9995
2 40025  98.0315  35.2822 0012842 101.9436 258.3226 14.97834022529129
QB50P2                  
1 40032U 14033Y   24077.38428298  .00005407  00000+0  47793-3 0  9992
2 40032  97.9970  27.5870 0011598 100.2347 260.0182 14.96718290528935
PERSEUS-M2              
1 40037U 14033AD  24077.36964822  .00001957  00000+0  20935-3 0  9998
2 40037  97.9222   7.9080 0014541 133.1368 227.1068 14.89831528528157
PERSEUS-M1              
1 40039U 14033AF  24077.37996131  .00001786  00000+0  19280-3 0  9990
2 40039  97.9037   4.2320 0014299 132.5993 227.6433 14.89568939528016
POLYITAN-1              
1 40042U 14033AJ  24077.37357745  .00008978  00000+0  72712-3 0  9995
2 40042  98.0460  38.1893 0016269  87.3835 272.9249 14.99866441529068
TIGRISAT                
1 40043U 14033AK  24077.44027281  .00002747  00000+0  37717-3 0  9997
2 40043  97.6851 244.2330 0055174 241.6993 117.8645 14.78122324523908
AEROCUBE 6A             
1 40045U 14033AM  24077.48412557  .00005269  00000+0  65725-3 0  9999
2 40045  97.6652 254.7124 0051367 221.8175 137.9110 14.81885122524208
AEROCUBE 6B             
1 40046U 14033AN  24077.43787567  .00006075  00000+0  74235-3 0  9993
2 40046  97.6609 253.2974 0050044 217.6719 142.0987 14.82725261524247
UKUBE-1                 
1 40074U 14037F   24077.31422194  .00005530  00000+0  55181-3 0  9991
2 40074  98.3399   1.7499 0004901  33.3863 326.7662 14.91976020525078
BRITE-PL2 (HEWELIUSZ)   
1 40119U 14049B   24077.25837216  .00001880  00000+0  20981-3 0  9996
2 40119  97.8770 177.4249 0015061 309.6246  50.3641 14.88148082518908
CP10 (EXOCUBE)          
1 40380U 15003E   24077.54238592  .00073895  00000+0  86318-3 0  9992
2 40380  99.1040  76.8732 0059588  76.9554 283.8340 15.59153142505031
AEROCUBE 5C             
1 40965U 15058B   24076.97044950  .00002626  00000+0  26377-3 0  9993
2 40965  64.7701 284.5266 0183997 336.8910  22.3996 14.81787255243379
AEROCUBE 7              
1 40966U 15058C   24077.56485669  .00002841  00000+0  27580-3 0  9992
2 40966  64.7681 277.2552 0179803 336.3896  22.9031 14.83380410243519
VELOX-II                
1 41171U 15077F   24077.22347165  .00057905  00000+0  99932-3 0  9994
2 41171  14.9901  55.9270 0004134 195.0889 164.9314 15.49088025457400
HORYU-4                 
1 41340U 16012D   24077.56235939  .00010054  00000+0  54021-3 0  9998
2 41340  31.0016 211.4868 0011054 120.2426 239.9308 15.13568148444247
E-ST@R-II               
1 41459U 16025D   24077.60557636  .00132077  00000+0  11715-2 0  9991
2 41459  98.1397 317.1328 0047665 201.7438 158.1798 15.66650639435222
RAVAN                   
1 41849U 16067B   24077.44353525  .00007816  00000+0  46273-3 0  9993
2 41849  98.0590 249.9408 0013416 343.0692  17.0087 15.11652766402118
CELTEE 1                
1 41850U 16067C   24077.39990479  .00005726  00000+0  40784-3 0  9993
2 41850  98.0939 242.3242 0001362 123.6910 236.4444 15.05032283401619
OPTICUBE 04             
1 41851U 16067D   24077.43714887  .00002889  00000+0  22582-3 0  9999
2 41851  98.0677 238.6532 0017647  10.5654 349.5936 15.01833235401468
AEROCUBE 8D             
1 41852U 16067E   24077.45522560  .00006056  00000+0  42020-3 0  9996
2 41852  98.0988 241.9169 0005838  61.2519 298.9292 15.05978011401580
AEROCUBE 8C             
1 41853U 16067F   24077.39864426  .00006624  00000+0  45997-3 0  9997
2 41853  98.0785 240.6705 0008068 352.2501   7.8599 15.05896105401568
PROMETHEUS 2-1          
1 41854U 16067G   24077.42555393  .00012096  00000+0  68502-3 0  9999
2 41854  98.0938 246.6648 0013714   9.9161 350.2336 15.13113178401849
PROMETHEUS 2-3          
1 41855U 16067H   24077.42120566  .00012251  00000+0  69416-3 0  9998
2 41855  98.0863 246.2381 0011580  19.8134 340.3543 15.13111356401842
DIDO-2                  
1 42000U 17008BE  24077.38915410  .00066561  00000+0  76050-3 0  9997
2 42000  97.1541 136.8126 0004735 121.3926 238.7796 15.61961506394362
AALTO-1                 
1 42775U 17036L   24077.61494002  .00041933  00000+0  66978-3 0  9996
2 42775  97.1205 107.1068 0007255 163.8987 196.2499 15.53043846374839
URSA MAIOR              
1 42776U 17036M   24077.59690189  .00062075  00000+0  74957-3 0  9994
2 42776  97.1177 109.9483 0006802 155.7800 204.3779 15.60521274375006
DIAMOND RED             
1 42783U 17036U   24077.58882757  .00162127  00000+0  10058-2 0  9995
2 42783  97.1059 115.6913 0005334 159.0410 201.1076 15.76542127375381
